{"type": "FeatureCollection", "features": [ {"type": "Feature", "properties": {"norad_id": 35455, "name": "COSMOS 2251 DEB", "group": "cosmos-2251-debris", "lat": -57.91580212035621, "lon": 159.03524290097204, "alt_km": 804.9100199390878, "timestamp": "2025-12-03T15:48:03.462319+00:00", "meta": {"OBJECT_NAME": "COSMOS 2251 DEB", "OBJECT_ID": "1993-036AKZ", "EPOCH": "2025-12-02T08:52:17.921568", "MEAN_MOTION": 14.49202551, "ECCENTRICITY": 0.00987049, "INCLINATION": 74.0278, "RA_OF_ASC_NODE": 314.2686, "ARG_OF_PERICENTER": 60.4192, "MEAN_ANOMALY": 300.6759, "EPHEMERIS_TYPE": 0, "CLASSIFICATION_TYPE": "U", "NORAD_CAT_ID": 35455, "ELEMENT_SET_NO": 999, "REV_AT_EPOCH": 86393, "BSTAR": 0.0016096128, "MEAN_MOTION_DOT": 6.5e-05, "MEAN_MOTION_DDOT": 0}, "tle": {"line1": "1 35455U 93036AKZ 25336.36965187  .00006500  00000+0  16096-2 0  9991", "line2": "2 35455  74.0278 314.2686 0098704  60.4192 300.6759 14.49202551863934"}}, "geometry": {"type": "Point", "coordinates": [159.03524290097204, -57.91580212035621]}}, {"type": "Feature", "properties": {"norad_id": 35456, "name": "COSMOS 2251 DEB", "group": "cosmos-2251-debris", "lat": -47.443293825395536, "lon": 116.88040380830785, "alt_km": 633.6103983106022, "timestamp": "2025-12-03T15:48:03.462328+00:00", "meta": {"OBJECT_NAME": "COSMOS 2251 DEB", "OBJECT_ID": "1993-036ALA", "EPOCH": "2025-12-03T02:57:04.162176", "MEAN_MOTION": 14.69114044, "ECCENTRICITY": 0.0065078, "INCLINATION": 73.9488, "RA_OF_ASC_NODE": 136.1966, "ARG_OF_PERICENTER": 348.2042, "MEAN_ANOMALY": 11.7599, "EPHEMERIS_TYPE": 0, "CLASSIFICATION_TYPE": "U", "NORAD_CAT_ID": 35456, "ELEMENT_SET_NO": 999, "REV_AT_EPOCH": 65734, "BSTAR": 0.0020335199, "MEAN_MOTION_DOT": 0.00012335, "MEAN_MOTION_DDOT": 0}, "tle": {"line1": "1 35456U 93036ALA 25337.12296484  .00012335  00000+0  20335-2 0  9998", "line2": "2 35456  73.9488 136.1966 0065078 348.2042  11.7599 14.69114044657346"}}, "geometry": {"type": "Point", "coordinates": [116.88040380830785, -47.443293825395536]}}, {"type": "Feature", "properties": {"norad_id": 35459, "name": "COSMOS 2251 DEB", "group": "cosmos-2251-debris", "lat": -62.73812394241175, "lon": 169.99834296546433, "alt_km": 782.5362804791721, "timestamp": "2025-12-03T15:48:03.462337+00:00", "meta": {"OBJECT_NAME": "COSMOS 2251 DEB", "OBJECT_ID": "1993-036ALD", "EPOCH": "2025-12-01T22:21:32.007744", "MEAN_MOTION": 14.37436198, "ECCENTRICITY": 0.00166822, "INCLINATION": 73.8706, "RA_OF_ASC_NODE": 207.3714, "ARG_OF_PERICENTER": 158.6603, "MEAN_ANOMALY": 201.5249, "EPHEMERIS_TYPE": 0, "CLASSIFICATION_TYPE": "U", "NORAD_CAT_ID": 35459, "ELEMENT_SET_NO": 999, "REV_AT_EPOCH": 58206, "BSTAR": 0.00027997141, "MEAN_MOTION_DOT": 8.11e-06, "MEAN_MOTION_DDOT": 0}, "tle": {"line1": "1 35459U 93036ALD 25335.93162046  .00000811  00000+0  27997-3 0  9992", "line2": "2 35459  73.8706 207.3714 0016682 158.6603 201.5249 14.37436198582065"}}, "geometry": {"type": "Point", "coordinates": [169.99834296546433, -62.73812394241175]}}, {"type": "Feature", "properties": {"norad_id": 35462, "name": "COSMOS 2251 DEB", "group": "cosmos-2251-debris", "lat": -72.97944531160404, "lon": 174.4187732537295, "alt_km": 768.1978622920224, "timestamp": "2025-12-03T15:48:03.462346+00:00", "meta": {"OBJECT_NAME": "COSMOS 2251 DEB", "OBJECT_ID": "1993-036ALG", "EPOCH": "2025-12-01T03:45:45.448128", "MEAN_MOTION": 14.29124029, "ECCENTRICITY": 0.00870444, "INCLINATION": 74.036, "RA_OF_ASC_NODE": 289.718, "ARG_OF_PERICENTER": 327.319, "MEAN_ANOMALY": 32.2589, "EPHEMERIS_TYPE": 0, "CLASSIFICATION_TYPE": "U", "NORAD_CAT_ID": 35462, "ELEMENT_SET_NO": 999, "REV_AT_EPOCH": 66215, "BSTAR": 0.0017949723, "MEAN_MOTION_DOT": 4.718e-05, "MEAN_MOTION_DDOT": 0}, "tle": {"line1": "1 35462U 93036ALG 25335.15677602  .00004718  00000+0  17950-2 0  9996", "line2": "2 35462  74.0360 289.7180 0087044 327.3190  32.2589 14.29124029662158"}}, "geometry": {"type": "Point", "coordinates": [174.4187732537295, -72.97944531160404]}}, {"type": "Feature", "properties": {"norad_id": 35465, "name": "COSMOS 2251 DEB", "group": "cosmos-2251-debris", "lat": -11.466040050579487, "lon": 37.301023821611366, "alt_km": 793.4318523772063, "timestamp": "2025-12-03T15:48:03.462355+00:00", "meta": {"OBJECT_NAME": "COSMOS 2251 DEB", "OBJECT_ID": "1993-036ALK", "EPOCH": "2025-11-29T22:48:34.232544", "MEAN_MOTION": 14.44263019, "ECCENTRICITY": 0.00634289, "INCLINATION": 73.9997, "RA_OF_ASC_NODE": 220.8763, "ARG_OF_PERICENTER": 24.0529, "MEAN_ANOMALY": 336.3567, "EPHEMERIS_TYPE": 0, "CLASSIFICATION_TYPE": "U", "NORAD_CAT_ID": 35465, "ELEMENT_SET_NO": 999, "REV_AT_EPOCH": 87057, "BSTAR": 0.00049692277, "MEAN_MOTION_DOT": 1.723e-05, "MEAN_MOTION_DDOT": 0}, "tle": {"line1": "1 35465U 93036ALK 25333.95039621  .00001723  00000+0  49692-3 0  9990", "line2": "2 35465  73.9997 220.8763 0063428  24.0529 336.3567 14.44263019870576"}}, "geometry": {"type": "Point", "coordinates": [37.301023821611366, -11.466040050579487]}}, {"type": "Feature", "properties": {"norad_id": 35469, "name": "COSMOS 2251 DEB", "group": "cosmos-2251-debris", "lat": -27.009405221206876, "lon": -130.6592091488914, "alt_km": 677.4213916394283, "timestamp": "2025-12-03T15:48:03.462364+00:00", "meta": {"OBJECT_NAME": "COSMOS 2251 DEB", "OBJECT_ID": "1993-036ALP", "EPOCH": "2025-12-02T20:37:36.377184", "MEAN_MOTION": 14.49803399, "ECCENTRICITY": 0.00774296, "INCLINATION": 74.0178, "RA_OF_ASC_NODE": 42.4415, "ARG_OF_PERICENTER": 200.1397, "MEAN_ANOMALY": 159.6705, "EPHEMERIS_TYPE": 0, "CLASSIFICATION_TYPE": "U", "NORAD_CAT_ID": 35469, "ELEMENT_SET_NO": 999, "REV_AT_EPOCH": 87968, "BSTAR": 0.00017084392, "MEAN_MOTION_DOT": 6.55e-06, "MEAN_MOTION_DDOT": 0}, "tle": {"line1": "1 35469U 93036ALP 25336.85944881  .00000655  00000+0  17084-3 0  9992", "line2": "2 35469  74.0178  42.4415 0077429 200.1397 159.6705 14.49803399879688"}}, "geometry": {"type": "Point", "coordinates": [-130.6592091488914, -27.009405221206876]}}, {"type": "Feature", "properties": {"norad_id": 35475, "name": "COSMOS 2251 DEB", "group": "cosmos-2251-debris", "lat": 42.564409749074045, "lon": -12.02169805906337, "alt_km": 666.8642422695475, "timestamp": "2025-12-03T15:48:03.462373+00:00", "meta": {"OBJECT_NAME": "COSMOS 2251 DEB", "OBJECT_ID": "1993-036ALV", "EPOCH": "2025-12-02T06:30:21.330144", "MEAN_MOTION": 14.69388033, "ECCENTRICITY": 0.0021308, "INCLINATION": 74.022, "RA_OF_ASC_NODE": 185.9231, "ARG_OF_PERICENTER": 259.5642, "MEAN_ANOMALY": 100.3127, "EPHEMERIS_TYPE": 0, "CLASSIFICATION_TYPE": "U", "NORAD_CAT_ID": 35475, "ELEMENT_SET_NO": 999, "REV_AT_EPOCH": 65463, "BSTAR": 0.0018441, "MEAN_MOTION_DOT": 0.00010931, "MEAN_MOTION_DDOT": 0}, "tle": {"line1": "1 35475U 93036ALV 25336.27108021  .00010931  00000+0  18441-2 0  9998", "line2": "2 35475  74.0220 185.9231 0021308 259.5642 100.3127 14.69388033654630"}}, "geometry": {"type": "Point", "coordinates": [-12.02169805906337, 42.564409749074045]}}, {"type": "Feature", "properties": {"norad_id": 35476, "name": "COSMOS 2251 DEB", "group": "cosmos-2251-debris", "lat": 30.756779906485907, "lon": -111.10568833404558, "alt_km": 640.3512031357204, "timestamp": "2025-12-03T15:48:03.462382+00:00", "meta": {"OBJECT_NAME": "COSMOS 2251 DEB", "OBJECT_ID": "1993-036ALW", "EPOCH": "2025-12-03T01:17:42.436032", "MEAN_MOTION": 14.75303312, "ECCENTRICITY": 0.0017223, "INCLINATION": 73.9781, "RA_OF_ASC_NODE": 79.9258, "ARG_OF_PERICENTER": 67.461, "MEAN_ANOMALY": 111.3353, "EPHEMERIS_TYPE": 0, "CLASSIFICATION_TYPE": "U", "NORAD_CAT_ID": 35476, "ELEMENT_SET_NO": 999, "REV_AT_EPOCH": 87744, "BSTAR": 0.0025875843, "MEAN_MOTION_DOT": 0.00017587, "MEAN_MOTION_DDOT": 0}, "tle": {"line1": "1 35476U 93036ALW 25337.05396338  .00017587  00000+0  25876-2 0  9990", "line2": "2 35476  73.9781  79.9258 0017223  67.4610 111.3353 14.75303312877447"}}, "geometry": {"type": "Point", "coordinates": [-111.10568833404558, 30.756779906485907]}}, {"type": "Feature", "properties": {"norad_id": 35580, "name": "COSMOS 2251 DEB", "group": "cosmos-2251-debris", "lat": 1.1152640867523413, "lon": -165.4983769688125, "alt_km": 1148.0762651736723, "timestamp": "2025-12-03T15:48:03.462391+00:00", "meta": {"OBJECT_NAME": "COSMOS 2251 DEB", "OBJECT_ID": "1993-036ALX", "EPOCH": "2025-11-11T02:25:47.460864", "MEAN_MOTION": 13.83664367, "ECCENTRICITY": 0.0284653, "INCLINATION": 73.9022, "RA_OF_ASC_NODE": 232.5156, "ARG_OF_PERICENTER": 243.9426, "MEAN_ANOMALY": 113.2144, "EPHEMERIS_TYPE": 0, "CLASSIFICATION_TYPE": "U", "NORAD_CAT_ID": 35580, "ELEMENT_SET_NO": 999, "REV_AT_EPOCH": 61819, "BSTAR": 0.0015271116, "MEAN_MOTION_DOT": 2.282e-05, "MEAN_MOTION_DDOT": 0}, "tle": {"line1": "1 35580U 93036ALX 25315.10124376  .00002282  00000+0  15271-2 0  9993", "line2": "2 35580  73.9022 232.5156 0284653 243.9426 113.2144 13.83664367618196"}}, "geometry": {"type": "Point", "coordinates": [-165.4983769688125, 1.1152640867523413]}}, {"type": "Feature", "properties": {"norad_id": 35583, "name": "COSMOS 2251 DEB", "group": "cosmos-2251-debris", "lat": -73.90638931234837, "lon": 137.69832282119262, "alt_km": 785.2308660548824, "timestamp": "2025-12-03T15:48:03.462400+00:00", "meta": {"OBJECT_NAME": "COSMOS 2251 DEB", "OBJECT_ID": "1993-036AMA", "EPOCH": "2025-12-01T09:18:45.701280", "MEAN_MOTION": 13.55311164, "ECCENTRICITY": 0.03859858, "INCLINATION": 73.9177, "RA_OF_ASC_NODE": 230.413, "ARG_OF_PERICENTER": 256.8414, "MEAN_ANOMALY": 98.9367, "EPHEMERIS_TYPE": 0, "CLASSIFICATION_TYPE": "U", "NORAD_CAT_ID": 35583, "ELEMENT_SET_NO": 999, "REV_AT_EPOCH": 82258, "BSTAR": 0.00049161142, "MEAN_MOTION_DOT": 5.24e-06, "MEAN_MOTION_DDOT": 0}, "tle": {"line1": "1 35583U 93036AMA 25335.38802895  .00000524  00000+0  49161-3 0  9990", "line2": "2 35583  73.9177 230.4130 0385985 256.8414  98.9367 13.55311164822588"}}, "geometry": {"type": "Point", "coordinates": [137.69832282119262, -73.90638931234837]}}]}